NORAD_CAT_ID,OBJECT_NAME,OBJECT_TYPE,EPOCH,MEAN_MOTION,ECCENTRICITY,INCLINATION,RA_OF_ASC_NODE,ARG_OF_PERICENTER,MEAN_ANOMALY,BSTAR,MEAN_MOTION_DOT,MEAN_MOTION_DDOT,TLE_LINE0,TLE_LINE1,TLE_LINE2,SEMIMAJOR_AXIS,PERIOD,APOGEE,PERIGEE,DECAYED
53008.0,STARLINK-4275,PAYLOAD,2023-04-05 13:01:09,15.08835988,0.0001158,53.215,213.7107,59.8092,300.3014,0.00016399,2.323e-05,0.0,0 STARLINK-4275,1 53008U 22076Y   23095.54247461  .00002323  00000-0  16399-3 0  9996,2 53008  53.2150 213.7107 0001158  59.8092 300.3014 15.08835988 41914,6917.893,95.438,540.559,538.957,0.0
53008.0,STARLINK-4275,PAYLOAD,2023-04-05 14:36:32,15.08837872,0.0001333,53.2155,213.4121,87.4725,272.642,4.6758e-05,4.56e-06,0.0,0 STARLINK-4275,1 53008U 22076Y   23095.60871251  .00000456  00000-0  46758-4 0  9991,2 53008  53.2155 213.4121 0001333  87.4725 272.6420 15.08837872 41452,6917.887,95.438,540.674,538.83,0.0
53008.0,STARLINK-4275,PAYLOAD,2023-04-06 11:16:33,15.08841463,0.0001277,53.2161,209.5471,96.245,263.8687,7.389e-05,8.88e-06,0.0,0 STARLINK-4275,1 53008U 22076Y   23096.46983074  .00000888  00000-0  73890-4 0  9999,2 53008  53.2161 209.5471 0001277  96.2450 263.8687 15.08841463 41585,6917.876,95.437,540.624,538.858,0.0
53008.0,STARLINK-4275,PAYLOAD,2023-04-06 23:59:38,15.0884464,0.0001542,53.2172,207.1681,103.6661,256.4503,0.00023344,3.43e-05,0.0,0 STARLINK-4275,1 53008U 22076Y   23096.99974777  .00003430  00000-0  23344-3 0  9991,2 53008  53.2172 207.1681 0001542 103.6661 256.4503 15.08844640 42133,6917.866,95.437,540.798,538.664,0.0
53008.0,STARLINK-4275,PAYLOAD,2023-04-07 11:07:20,15.08838052,0.0001851,53.2173,205.0853,114.4393,245.6793,9.2383e-05,1.182e-05,0.0,0 STARLINK-4275,1 53008U 22076Y   23097.46343102  .00001182  00000-0  92383-4 0  9998,2 53008  53.2173 205.0853 0001851 114.4393 245.6793 15.08838052 42206,6917.886,95.438,541.032,538.471,0.0
53008.0,STARLINK-4275,PAYLOAD,2023-04-08 12:33:31,15.08840574,0.0001514,53.2191,200.3287,100.5164,259.5998,8.1281e-07,-2.75e-06,0.0,0 STARLINK-4275,1 53008U 22076Y   23098.52327587 -.00000275  00000-0  81281-6 0  9995,2 53008  53.2191 200.3287 0001514 100.5164 259.5998 15.08840574 41890,6917.879,95.438,540.791,538.696,0.0
53008.0,STARLINK-4275,PAYLOAD,2023-04-08 15:44:17,15.0884354,0.000157,53.2188,199.7334,102.0221,258.0947,3.171e-05,2.17e-06,0.0,0 STARLINK-4275,1 53008U 22076Y   23098.65575317  .00000217  00000-0  31710-4 0  9990,2 53008  53.2188 199.7334 0001570 102.0221 258.0947 15.08843540 42382,6917.87,95.437,540.821,538.648,0.0
53008.0,STARLINK-4275,PAYLOAD,2023-04-08 23:41:13,15.08831765,0.0001554,53.2173,198.2474,89.3276,270.7895,6.6674e-05,7.73e-06,0.0,0 STARLINK-4275,1 53008U 22076Y   23098.98695999  .00000773  00000-0  66674-4 0  9999,2 53008  53.2173 198.2474 0001554  89.3276 270.7895 15.08831765 42439,6917.906,95.438,540.846,538.696,0.0
53008.0,STARLINK-4275,PAYLOAD,2023-04-09 10:48:55,15.08835467,0.0001571,53.2182,196.1653,93.3784,266.7388,8.191e-05,1.016e-05,0.0,0 STARLINK-4275,1 53008U 22076Y   23099.45063890  .00001016  00000-0  81910-4 0  9992,2 53008  53.2182 196.1653 0001571  93.3784 266.7388 15.08835467 42034,6917.894,95.438,540.846,538.672,0.0
53008.0,STARLINK-4275,PAYLOAD,2023-04-09 15:35:04,15.08840736,0.0001533,53.2177,195.2725,88.8205,271.2963,9.3305e-05,1.197e-05,0.0,0 STARLINK-4275,1 53008U 22076Y   23099.64935564  .00001197  00000-0  93305-4 0  9990,2 53008  53.2177 195.2725 0001533  88.8205 271.2963 15.08840736 42533,6917.878,95.438,540.804,538.683,0.0
53008.0,STARLINK-4275,PAYLOAD,2023-04-10 05:53:32,15.08840669,0.0001483,53.218,192.5966,92.3469,267.7693,0.00014668,2.047e-05,0.0,0 STARLINK-4275,1 53008U 22076Y   23100.24551560  .00002047  00000-0  14668-3 0  9998,2 53008  53.2180 192.5966 0001483  92.3469 267.7693 15.08840669 42153,6917.878,95.438,540.769,538.717,0.0
53008.0,STARLINK-4275,PAYLOAD,2023-04-10 23:22:46,15.0885338,0.0001182,53.2151,189.3241,100.6451,259.4674,0.00011248,1.503e-05,0.0,0 STARLINK-4275,1 53008U 22076Y   23100.97414359  .00001503  00000-0  11248-3 0  9999,2 53008  53.2151 189.3241 0001182 100.6451 259.4674 15.08853380 42736,6917.839,95.437,540.522,538.887,0.0
53008.0,STARLINK-4275,PAYLOAD,2023-04-11 10:30:28,15.08844847,0.0001309,53.2159,187.2435,88.224,271.8903,0.00015982,2.257e-05,0.0,0 STARLINK-4275,1 53008U 22076Y   23101.43782748  .00002257  00000-0  15982-3 0  9997,2 53008  53.2159 187.2435 0001309  88.2240 271.8903 15.08844847 42803,6917.866,95.437,540.636,538.825,0.0
53008.0,STARLINK-4275,PAYLOAD,2023-04-11 12:05:51,15.08849956,0.0001167,53.2163,186.9459,88.2465,271.8661,0.00013913,1.928e-05,0.0,0 STARLINK-4275,1 53008U 22076Y   23101.50406438  .00001928  00000-0  13913-3 0  9990,2 53008  53.2163 186.9459 0001167  88.2465 271.8661 15.08849956 42347,6917.85,95.437,540.522,538.908,0.0
53008.0,STARLINK-4275,PAYLOAD,2023-04-12 11:56:39,15.08835835,0.0001536,53.2177,182.4852,113.0835,247.032,-0.00012104,-2.214e-05,0.0,0 STARLINK-4275,1 53008U 22076Y   23102.49767809 -.00002214  00000-0 -12104-3 0  9993,2 53008  53.2177 182.4852 0001536 113.0835 247.0320 15.08835835 42492,6917.893,95.438,540.821,538.696,0.0
53008.0,STARLINK-4275,PAYLOAD,2023-04-12 16:42:48,15.08839737,0.0001393,53.2157,181.5927,98.6874,261.4276,-6.7097e-05,-1.356e-05,0.0,0 STARLINK-4275,1 53008U 22076Y   23102.69639461 -.00001356  00000-0 -67097-4 0  9995,2 53008  53.2157 181.5927 0001393  98.6874 261.4276 15.08839737 42995,6917.881,95.438,540.71,538.783,0.0
53008.0,STARLINK-4275,PAYLOAD,2023-04-13 10:12:02,15.08841689,0.0001546,53.2162,178.321,102.4012,257.7154,3.8389e-05,3.23e-06,0.0,0 STARLINK-4275,1 53008U 22076Y   23103.42503144  .00000323  00000-0  38389-4 0  9998,2 53008  53.2162 178.3210 0001546 102.4012 257.7154 15.08841689 42631,6917.875,95.437,540.81,538.671,0.0
53008.0,STARLINK-4275,PAYLOAD,2023-04-14 05:16:40,15.08831292,0.0001408,53.2154,174.7537,101.8421,258.2729,0.00020187,2.926e-05,0.0,0 STARLINK-4275,1 53008U 22076Y   23104.21991601  .00002926  00000-0  20187-3 0  9992,2 53008  53.2154 174.7537 0001408 101.8421 258.2729 15.08831292 43227,6917.907,95.438,540.746,538.798,0.0
53008.0,STARLINK-4275,PAYLOAD,2023-04-14 11:38:13,15.0883613,0.0001401,53.2163,173.5647,107.1486,252.966,0.00013626,1.881e-05,0.0,0 STARLINK-4275,1 53008U 22076Y   23104.48487568  .00001881  00000-0  13626-3 0  9992,2 53008  53.2163 173.5647 0001401 107.1486 252.9660 15.08836130 42791,6917.892,95.438,540.726,538.788,0.0
53008.0,STARLINK-4275,PAYLOAD,2023-04-15 09:53:37,15.08837765,0.0001428,53.217,169.4025,99.0808,261.0346,-8.9755e-06,-4.31e-06,0.0,0 STARLINK-4275,1 53008U 22076Y   23105.41224086 -.00000431  00000-0 -89755-5 0  9990,2 53008  53.2170 169.4025 0001428  99.0808 261.0346 15.08837765 43405,6917.887,95.438,540.74,538.764,0.0
53008.0,STARLINK-4275,PAYLOAD,2023-04-15 21:01:19,15.08839306,0.0001288,53.2164,167.3204,92.4286,267.6854,5.3944e-05,5.71e-06,0.0,0 STARLINK-4275,1 53008U 22076Y   23105.87591866  .00000571  00000-0  53944-4 0  9996,2 53008  53.2164 167.3204 0001288  92.4286 267.6854 15.08839306 43000,6917.883,95.438,540.639,538.856,0.0
53008.0,STARLINK-4275,PAYLOAD,2023-04-16 11:19:47,15.08845119,0.0001241,53.2164,164.644,87.7288,272.3846,0.00010663,1.41e-05,0.0,0 STARLINK-4275,1 53008U 22076Y   23106.47207535  .00001410  00000-0  10663-3 0  9993,2 53008  53.2164 164.6440 0001241  87.7288 272.3846 15.08845119 43564,6917.865,95.437,540.588,538.871,0.0
53008.0,STARLINK-4275,PAYLOAD,2023-04-16 20:52:06,15.08841091,0.0001217,53.2156,162.8605,87.2761,272.837,4.8203e-05,4.79e-06,0.0,0 STARLINK-4275,1 53008U 22076Y   23106.86951653  .00000479  00000-0  48203-4 0  9999,2 53008  53.2156 162.8605 0001217  87.2761 272.8370 15.08841091 43159,6917.877,95.437,540.584,538.9,0.0
53008.0,STARLINK-4275,PAYLOAD,2023-04-17 12:45:58,15.08839445,0.0001463,53.216,159.8851,79.94,280.1757,8.8628e-05,1.123e-05,0.0,0 STARLINK-4275,1 53008U 22076Y   23107.53192233  .00001123  00000-0  88628-4 0  9997,2 53008  53.2160 159.8851 0001463  79.9400 280.1757 15.08839445 43256,6917.882,95.438,540.759,538.735,0.0
53008.0,STARLINK-4275,PAYLOAD,2023-04-17 20:42:53,15.08839735,0.00014,53.2158,158.3985,80.1203,279.9947,8.4329e-05,1.054e-05,0.0,0 STARLINK-4275,1 53008U 22076Y   23107.86312262  .00001054  00000-0  84329-4 0  9996,2 53008  53.2158 158.3985 0001400  80.1203 279.9947 15.08839735 43306,6917.881,95.438,540.715,538.778,0.0
53008.0,STARLINK-4275,PAYLOAD,2023-04-18 09:25:58,15.08847561,0.0001414,53.2155,156.019,78.176,281.9391,8.8826e-05,1.126e-05,0.0,0 STARLINK-4275,1 53008U 22076Y   23108.39303775  .00001126  00000-0  88826-4 0  9990,2 53008  53.2155 156.0190 0001414  78.1760 281.9391 15.08847561 43386,6917.857,95.437,540.7,538.744,0.0
53008.0,STARLINK-4275,PAYLOAD,2023-04-18 20:33:40,15.08848626,0.0001354,53.2152,153.9391,78.681,281.4334,6.7984e-05,7.94e-06,0.0,0 STARLINK-4275,1 53008U 22076Y   23108.85671606  .00000794  00000-0  67984-4 0  9994,2 53008  53.2152 153.9391 0001354  78.6810 281.4334 15.08848626 43921,6917.854,95.437,540.656,538.782,0.0
53008.0,STARLINK-4275,PAYLOAD,2023-04-19 02:55:13,15.08841803,0.0001795,53.2157,152.751,79.2455,280.8739,9.7581e-05,1.265e-05,0.0,0 STARLINK-4275,1 53008U 22076Y   23109.12168247  .00001265  00000-0  97581-4 0  9997,2 53008  53.2157 152.7510 0001795  79.2455 280.8739 15.08841803 43963,6917.875,95.437,540.982,538.498,0.0
53008.0,STARLINK-4275,PAYLOAD,2023-04-19 09:16:46,15.08835047,0.0001299,53.2159,151.5609,60.0813,300.0308,0.0001363,1.882e-05,0.0,0 STARLINK-4275,1 53008U 22076Y   23109.38664536  .00001882  00000-0  13630-3 0  9994,2 53008  53.2159 151.5609 0001299  60.0813 300.0308 15.08835047 43539,6917.896,95.438,540.659,538.862,0.0
53008.0,STARLINK-4275,PAYLOAD,2023-04-20 09:07:32,15.08841115,0.0001447,53.2154,147.0984,97.8878,262.2279,3.3416e-05,2.44e-06,0.0,0 STARLINK-4275,1 53008U 22076Y   23110.38024194  .00000244  00000-0  33416-4 0  9992,2 53008  53.2154 147.0984 0001447  97.8878 262.2279 15.08841115 43689,6917.877,95.437,540.743,538.741,0.0
